[{"OBJECT_NAME":"XM-3 (RHYTHM)","OBJECT_ID":"2005-008A","EPOCH":"2022-08-18T20:08:16.212192","MEAN_MOTION":1.00270568,"ECCENTRICITY":0.0001522,"INCLINATION":0.0213,"RA_OF_ASC_NODE":220.0137,"ARG_OF_PERICENTER":313.6036,"MEAN_ANOMALY":10.5097,"EPHEMERIS_TYPE":0,"CLASSIFICATION_TYPE":"U","NORAD_CAT_ID":28626,"ELEMENT_SET_NO":999,"REV_AT_EPOCH":6404,"BSTAR":0,"MEAN_MOTION_DOT":-2.12e-6,"MEAN_MOTION_DDOT":0},{"OBJECT_NAME":"DIRECTV 8","OBJECT_ID":"2005-019A","EPOCH":"2022-08-18T15:02:46.485888","MEAN_MOTION":1.00270959,"ECCENTRICITY":0.000265,"INCLINATION":0.0157,"RA_OF_ASC_NODE":141.8135,"ARG_OF_PERICENTER":13.9974,"MEAN_ANOMALY":277.7878,"EPHEMERIS_TYPE":0,"CLASSIFICATION_TYPE":"U","NORAD_CAT_ID":28659,"ELEMENT_SET_NO":999,"REV_AT_EPOCH":6304,"BSTAR":0,"MEAN_MOTION_DOT":-6.0e-8,"MEAN_MOTION_DDOT":0},{"OBJECT_NAME":"GALAXY 28 (G-28)","OBJECT_ID":"2005-022A","EPOCH":"2022-08-18T20:07:23.472768","MEAN_MOTION":1.00269239,"ECCENTRICITY":0.0003112,"INCLINATION":0.014,"RA_OF_ASC_NODE":13.4616,"ARG_OF_PERICENTER":124.5467,"MEAN_ANOMALY":42.005,"EPHEMERIS_TYPE":0,"CLASSIFICATION_TYPE":"U","NORAD_CAT_ID":28702,"ELEMENT_SET_NO":999,"REV_AT_EPOCH":3796,"BSTAR":0,"MEAN_MOTION_DOT":-1.91e-6,"MEAN_MOTION_DDOT":0},{"OBJECT_NAME":"GALAXY 14 (G-14)","OBJECT_ID":"2005-030A","EPOCH":"2022-08-18T14:04:25.145760","MEAN_MOTION":1.00273282,"ECCENTRICITY":0.0001755,"INCLINATION":1.4159,"RA_OF_ASC_NODE":91.6276,"ARG_OF_PERICENTER":59.5426,"MEAN_ANOMALY":59.7271,"EPHEMERIS_TYPE":0,"CLASSIFICATION_TYPE":"U","NORAD_CAT_ID":28790,"ELEMENT_SET_NO":999,"REV_AT_EPOCH":6228,"BSTAR":0,"MEAN_MOTION_DOT":1.47e-6,"MEAN_MOTION_DDOT":0},{"OBJECT_NAME":"GALAXY 15 (G-15)","OBJECT_ID":"2005-041A","EPOCH":"2022-08-18T14:38:46.170240","MEAN_MOTION":1.0027457,"ECCENTRICITY":0.0001729,"INCLINATION":0.0342,"RA_OF_ASC_NODE":280.4118,"ARG_OF_PERICENTER":232.8582,"MEAN_ANOMALY":260.3973,"EPHEMERIS_TYPE":0,"CLASSIFICATION_TYPE":"U","NORAD_CAT_ID":28884,"ELEMENT_SET_NO":999,"REV_AT_EPOCH":6158,"BSTAR":0,"MEAN_MOTION_DOT":7.2e-7,"MEAN_MOTION_DDOT":0},{"OBJECT_NAME":"SPACEWAY 2","OBJECT_ID":"2005-046B","EPOCH":"2022-08-18T14:26:54.503808","MEAN_MOTION":1.00272133,"ECCENTRICITY":2.79e-5,"INCLINATION":2.0449,"RA_OF_ASC_NODE":87.3245,"ARG_OF_PERICENTER":133.8116,"MEAN_ANOMALY":183.6155,"EPHEMERIS_TYPE":0,"CLASSIFICATION_TYPE":"U","NORAD_CAT_ID":28903,"ELEMENT_SET_NO":999,"REV_AT_EPOCH":3731,"BSTAR":0,"MEAN_MOTION_DOT":9.5e-7,"MEAN_MOTION_DDOT":0},{"OBJECT_NAME":"GALAXY 16 (G-16)","OBJECT_ID":"2006-023A","EPOCH":"2022-08-18T20:04:30.188928","MEAN_MOTION":1.00272862,"ECCENTRICITY":0.0002921,"INCLINATION":0.0546,"RA_OF_ASC_NODE":275.2916,"ARG_OF_PERICENTER":244.2258,"MEAN_ANOMALY":9.7554,"EPHEMERIS_TYPE":0,"CLASSIFICATION_TYPE":"U","NORAD_CAT_ID":29236,"ELEMENT_SET_NO":999,"REV_AT_EPOCH":5895,"BSTAR":0,"MEAN_MOTION_DOT":-1.33e-6,"MEAN_MOTION_DDOT":0},{"OBJECT_NAME":"DIRECTV 9S","OBJECT_ID":"2006-043A","EPOCH":"2022-08-18T13:31:42.677760","MEAN_MOTION":1.00272594,"ECCENTRICITY":0.0002779,"INCLINATION":0.0208,"RA_OF_ASC_NODE":219.0352,"ARG_OF_PERICENTER":293.8307,"MEAN_ANOMALY":275.746,"EPHEMERIS_TYPE":0,"CLASSIFICATION_TYPE":"U","NORAD_CAT_ID":29494,"ELEMENT_SET_NO":999,"REV_AT_EPOCH":3735,"BSTAR":0,"MEAN_MOTION_DOT":-1.2e-6,"MEAN_MOTION_DDOT":0},{"OBJECT_NAME":"XM-4 (BLUES)","OBJECT_ID":"2006-049A","EPOCH":"2022-08-18T20:08:16.212192","MEAN_MOTION":1.00272173,"ECCENTRICITY":0.0001564,"INCLINATION":0.0649,"RA_OF_ASC_NODE":294.3251,"ARG_OF_PERICENTER":22.7481,"MEAN_ANOMALY":227.0339,"EPHEMERIS_TYPE":0,"CLASSIFICATION_TYPE":"U","NORAD_CAT_ID":29520,"ELEMENT_SET_NO":999,"REV_AT_EPOCH":3745,"BSTAR":0,"MEAN_MOTION_DOT":-2.12e-6,"MEAN_MOTION_DDOT":0},{"OBJECT_NAME":"GALAXY 17 (G-17)","OBJECT_ID":"2007-016B","EPOCH":"2022-08-18T20:06:53.337312","MEAN_MOTION":1.00271104,"ECCENTRICITY":0.0002541,"INCLINATION":0.0049,"RA_OF_ASC_NODE":297.3662,"ARG_OF_PERICENTER":223.072,"MEAN_ANOMALY":17.4303,"EPHEMERIS_TYPE":0,"CLASSIFICATION_TYPE":"U","NORAD_CAT_ID":31307,"ELEMENT_SET_NO":999,"REV_AT_EPOCH":5605,"BSTAR":0,"MEAN_MOTION_DOT":-1.81e-6,"MEAN_MOTION_DDOT":0},{"OBJECT_NAME":"DIRECTV 10","OBJECT_ID":"2007-032A","EPOCH":"2022-08-18T14:37:42.805344","MEAN_MOTION":1.0027277,"ECCENTRICITY":1.88e-5,"INCLINATION":0.0069,"RA_OF_ASC_NODE":254.9244,"ARG_OF_PERICENTER":201.4579,"MEAN_ANOMALY":347.1739,"EPHEMERIS_TYPE":0,"CLASSIFICATION_TYPE":"U","NORAD_CAT_ID":31862,"ELEMENT_SET_NO":999,"REV_AT_EPOCH":3156,"BSTAR":0,"MEAN_MOTION_DOT":-1.1e-6,"MEAN_MOTION_DDOT":0},{"OBJECT_NAME":"SPACEWAY 3","OBJECT_ID":"2007-036A","EPOCH":"2022-08-19T05:33:38.140416","MEAN_MOTION":1.00271791,"ECCENTRICITY":1.91e-5,"INCLINATION":0.3821,"RA_OF_ASC_NODE":90.1321,"ARG_OF_PERICENTER":90.7264,"MEAN_ANOMALY":135.1438,"EPHEMERIS_TYPE":0,"CLASSIFICATION_TYPE":"U","NORAD_CAT_ID":32018,"ELEMENT_SET_NO":999,"REV_AT_EPOCH":5510,"BSTAR":0,"MEAN_MOTION_DOT":-1.58e-6,"MEAN_MOTION_DDOT":0},{"OBJECT_NAME":"INTELSAT 11 (IS-11)","OBJECT_ID":"2007-044B","EPOCH":"2022-08-19T02:28:42.513312","MEAN_MOTION":1.00272686,"ECCENTRICITY":0.0001679,"INCLINATION":0.0063,"RA_OF_ASC_NODE":284.2032,"ARG_OF_PERICENTER":235.7127,"MEAN_ANOMALY":161.6955,"EPHEMERIS_TYPE":0,"CLASSIFICATION_TYPE":"U","NORAD_CAT_ID":32253,"ELEMENT_SET_NO":999,"REV_AT_EPOCH":5451,"BSTAR":0,"MEAN_MOTION_DOT":-2.75e-6,"MEAN_MOTION_DDOT":0},{"OBJECT_NAME":"HORIZONS-2","OBJECT_ID":"2007-063B","EPOCH":"2022-08-18T20:26:42.515808","MEAN_MOTION":0.99713808,"ECCENTRICITY":0.0003709,"INCLINATION":0.0164,"RA_OF_ASC_NODE":89.2783,"ARG_OF_PERICENTER":12.706,"MEAN_ANOMALY":169.1405,"EPHEMERIS_TYPE":0,"CLASSIFICATION_TYPE":"U","NORAD_CAT_ID":32388,"ELEMENT_SET_NO":999,"REV_AT_EPOCH":5379,"BSTAR":0,"MEAN_MOTION_DOT":-1.26e-6,"MEAN_MOTION_DDOT":0},{"OBJECT_NAME":"DIRECTV 11","OBJECT_ID":"2008-013A","EPOCH":"2022-08-18T14:37:42.805344","MEAN_MOTION":1.00272718,"ECCENTRICITY":2.82e-5,"INCLINATION":0.0039,"RA_OF_ASC_NODE":222.5547,"ARG_OF_PERICENTER":347.1938,"MEAN_ANOMALY":237.417,"EPHEMERIS_TYPE":0,"CLASSIFICATION_TYPE":"U","NORAD_CAT_ID":32729,"ELEMENT_SET_NO":999,"REV_AT_EPOCH":3156,"BSTAR":0,"MEAN_MOTION_DOT":-1.33e-6,"MEAN_MOTION_DDOT":0},{"OBJECT_NAME":"GALAXY 18 (G-18)","OBJECT_ID":"2008-024A","EPOCH":"2022-08-18T20:46:04.536192","MEAN_MOTION":1.00273891,"ECCENTRICITY":0.0002963,"INCLINATION":0.0137,"RA_OF_ASC_NODE":107.9999,"ARG_OF_PERICENTER":47.9037,"MEAN_ANOMALY":359.8052,"EPHEMERIS_TYPE":0,"CLASSIFICATION_TYPE":"U","NORAD_CAT_ID":32951,"ELEMENT_SET_NO":999,"REV_AT_EPOCH":3183,"BSTAR":0,"MEAN_MOTION_DOT":1.8e-7,"MEAN_MOTION_DDOT":0},{"OBJECT_NAME":"INTELSAT 25 (IS-25)","OBJECT_ID":"2008-034A","EPOCH":"2022-08-18T20:34:42.650112","MEAN_MOTION":1.0027143,"ECCENTRICITY":0.0003197,"INCLINATION":0.0152,"RA_OF_ASC_NODE":133.2536,"ARG_OF_PERICENTER":26.6475,"MEAN_ANOMALY":84.4514,"EPHEMERIS_TYPE":0,"CLASSIFICATION_TYPE":"U","NORAD_CAT_ID":33153,"ELEMENT_SET_NO":999,"REV_AT_EPOCH":5167,"BSTAR":0,"MEAN_MOTION_DOT":-2.3e-6,"MEAN_MOTION_DDOT":0}]