XM-3 (RHYTHM)           
1 28626U 05008A   22230.83907653 -.00000212  00000+0  00000+0 0  9991
2 28626   0.0213 220.0137 0001522 313.6036  10.5097  1.00270568 64044
DIRECTV 8               
1 28659U 05019A   22230.62692692 -.00000006  00000+0  00000+0 0  9991
2 28659   0.0157 141.8135 0002650  13.9974 277.7878  1.00270959 63046
GALAXY 28 (G-28)        
1 28702U 05022A   22230.83846612 -.00000191  00000+0  00000+0 0  9995
2 28702   0.0140  13.4616 0003112 124.5467  42.0050  1.00269239 37961
GALAXY 14 (G-14)        
1 28790U 05030A   22230.58640215  .00000147  00000+0  00000+0 0  9994
2 28790   1.4159  91.6276 0001755  59.5426  59.7271  1.00273282 62282
GALAXY 15 (G-15)        
1 28884U 05041A   22230.61025660  .00000072  00000+0  00000+0 0  9992
2 28884   0.0342 280.4118 0001729 232.8582 260.3973  1.00274570 61580
SPACEWAY 2              
1 28903U 05046B   22230.60201972  .00000095  00000+0  00000+0 0  9995
2 28903   2.0449  87.3245 0000279 133.8116 183.6155  1.00272133 37315
GALAXY 16 (G-16)        
1 29236U 06023A   22230.83646052 -.00000133  00000+0  00000+0 0  9992
2 29236   0.0546 275.2916 0002921 244.2258   9.7554  1.00272862 58957
DIRECTV 9S              
1 29494U 06043A   22230.56368840 -.00000120  00000+0  00000+0 0  9992
2 29494   0.0208 219.0352 0002779 293.8307 275.7460  1.00272594 37358
XM-4 (BLUES)            
1 29520U 06049A   22230.83907653 -.00000212  00000+0  00000+0 0  9991
2 29520   0.0649 294.3251 0001564  22.7481 227.0339  1.00272173 37453
GALAXY 17 (G-17)        
1 31307U 07016B   22230.83811733 -.00000181  00000+0  00000+0 0  9990
2 31307   0.0049 297.3662 0002541 223.0720  17.4303  1.00271104 56052
DIRECTV 10              
1 31862U 07032A   22230.60952321 -.00000110  00000+0  00000+0 0  9990
2 31862   0.0069 254.9244 0000188 201.4579 347.1739  1.00272770 31567
SPACEWAY 3              
1 32018U 07036A   22231.23169144 -.00000158  00000+0  00000+0 0  9993
2 32018   0.3821  90.1321 0000191  90.7264 135.1438  1.00271791 55109
INTELSAT 11 (IS-11)     
1 32253U 07044B   22231.10326983 -.00000275  00000+0  00000+0 0  9995
2 32253   0.0063 284.2032 0001679 235.7127 161.6955  1.00272686 54517
HORIZONS-2              
1 32388U 07063B   22230.85188097 -.00000126  00000+0  00000+0 0  9993
2 32388   0.0164  89.2783 0003709  12.7060 169.1405  0.99713808 53794
DIRECTV 11              
1 32729U 08013A   22230.60952321 -.00000133  00000+0  00000+0 0  9998
2 32729   0.0039 222.5547 0000282 347.1938 237.4170  1.00272718 31568
GALAXY 18 (G-18)        
1 32951U 08024A   22230.86533028  .00000018  00000+0  00000+0 0  9995
2 32951   0.0137 107.9999 0002963  47.9037 359.8052  1.00273891 31835
INTELSAT 25 (IS-25)     
1 33153U 08034A   22230.85743808 -.00000230  00000+0  00000+0 0  9996
2 33153   0.0152 133.2536 0003197  26.6475  84.4514  1.00271430 51671
